ct,ID-MGRS,date,,in-prog,in-est,in-cort,,,ct,ID-WMRS,date,in-prog,in-est,in-cort  ,,,ct,ID-PHX-1,date,ex-prog,ex-est,ex-cort,,ct,ID-PHX-2,date,ex-prog,ex-est,ex-cort,,ct,ID-PHX-3,date,ex-prog,ex-est,ex-cort
39,1225,6/18/2018,,1345.593561,2132.655936,1264.95,,,39,5069,4/19/2019,393.6751468,814.109589,711.5459883,,,39,p,5/16/2015,375.4601227,323.2638037,892.4171779,,39,s,5/15/2015,211.1724138,788.7739464,528,,39,m,5/15/2015,282.4401544,995.3281853,329.0501931
40,1225,5/22/2019,,2927.95082,1249.180328,1014.27,,,40,5075,3/9/2019,427.6167665,827.9640719,710.3952096,,,40,p,5/17/2015,377.578125,300.0703125,951.2109375,,40,s,5/16/2015,211.3846154,1410.098619,561.3964497,,40,m,5/16/2015,300.6,1200.708333,1061.175
41,1225,5/22/2019,,2914.112903,1805.645161,564.145,,,41,5076,4/18/2019,328.4453441,609.1700405,223336.0324,,,41,p,5/18/2015,337.2639692,363.1445087,1522.196532,,41,s,5/17/2015,140.4219067,1096.73428,424.7951318,,41,m,5/17/2015,203.0103093,731.0103093,295.2
42,1225,6/18/2019,,745.5438596,940.662768,545.45,,,42,5077,4/18/2019,1227.329193,1761.055901,907.3043478,,,42,p,5/19/2015,428.5265226,505.8939096,1210.32613,,42,s,5/18/2015,165.4615385,1109.653846,344.6769231,,42,m,5/18/2015,279.1566731,1232.978723,602.7852998
43,1225,6/18/2019,,612,599.9175258,345.922,,,43,5092,7/30/2019,1598.412698,2921.071429,808.4285714,,,43,p,5/20/2015,450.867052,153.7649326,1095.375723,,43,s,5/19/2015,140.25,916.7916667,543.95,,43,m,5/19/2015,303.9298246,1755.360624,615.2748538
44,1226,5/29/2018,,2294.361055,2378.701826,1066.588,,,44,5100,6/8/2019,3793.38843,10606.98347,4130.553719,,,44,p,5/21/2015,376.1893491,375.581854,889.6804734,,44,s,5/20/2015,144,692.1289063,471,,44,m,5/20/2015,257,1111.309524,654.5
,,,,,,,,,45,5107,8/7/2019,587.736,1075.5,607.8,,,45,p,5/22/2015,486.3492063,829.8412698,1208.142857,,45,s,5/21/2015,123.8970297,457.8019802,270.5584158,,45,m,5/21/2015,272.3606557,862.2131148,435
,,,,,,,,,46,5110,8/12/2019,2240.490798,2133.128834,837.4969325,,,46,p,5/23/2015,563.3802817,1099.726358,731.8551308,,46,s,5/22/2015,174.8372093,786.996124,268.4418605,,46,m,5/22/2015,283.3165049,774.7572816,697.3747573
,,,,,,,,,47,5113,8/14/2019,1449.275362,507.5776398,1051.875776,,,47,p,5/24/2015,.,1046.928571,1577.380952,,47,s,5/23/2015,241.9453125,608.5546875,462.8203125,,47,m,5/23/2015,352.2162162,1130.852391,588.7484407
,,,,,,,,,,,,,,,,,48,p,5/25/2015,361.8800774,345.0135397,1969.555126,,48,s,5/24/2015,245.3516699,882.4361493,591.3713163,,48,m,5/24/2015,344.015444,1354.169884,621.3359073
,,,,,,,,,,,,,,,,,49,p,5/26/2015,356.039604,448.950495,738.9386139,,49,s,5/25/2015,213.6475248,694.7524752,679.1762376,,49,m,5/25/2015,279.034749,829.7490347,391.042471
,,,,,,,,,,,,,,,,,50,p,5/27/2015,.,1756.54321,1948.469136,,50,s,5/26/2015,216.9378758,667.4549098,304.4008016,,50,m,5/21/2015,300.7145791,970.3696099,813.4620123
,,,,,,,,,,,,,,,,,51,p,5/28/2015,.,375.1673152,1277.649805,,51,s,5/27/2015,104.7017544,404.6978558,401.6842105,,51,m,5/27/2015,300.816,909.5,427.632
,,,,,,,,,,,,,,,,,52,p,5/29/2015,.,510.6885246,937.6229508,,52,s,5/28/2015,117.6092843,343.44294,274.1663443,,52,m,5/28/2015,291.0520231,756.955684,675.3757225
,,,,,,,,,,,,,,,,,53,p,5/30/2015,.,674.2367347,603.844898,,53,s,5/29/2015,292.0714286,1421.507937,687.4761905,,53,m,5/29/2015,190.2142857,497.5396825,392.1190476
,,,,,,,,,,,,,,,,,54,p,5/31/2015,.,513.4140625,730.7578125,,54,s,5/30/2015,177.2138493,1054.826884,329.3279022,,54,m,5/30/2015,199.9148936,697.6595745,503.1411992
,,,,,,,,,,,,,,,,,55,p,6/1/2015,.,844.876494,499.9840637,,55,s,5/31/2015,185.9538462,1024.192308,418.2461538,,55,m,6/1/2015,310.8489796,1403.77551,567.5755102
,,,,,,,,,,,,,,,,,56,p,6/3/2015,.,446.8196721,685.647541,,56,s,6/1/2015,124.1889117,235.523614,179.6550308,,56,m,6/3/2015,216,836.4342629,417.4183267
,,,,,,,,,,,,,,,,,57,p,6/4/2015,.,607.8962076,1274.419162,,57,s,6/3/2015,268.5386139,2446.970297,567.2316832,,57,m,6/4/2015,177.3692308,736.9038462,481.3846154
,,,,,,,,,,,,,,,,,58,p,6/5/2015,.,263.4567901,760.7160494,,58,s,6/4/2015,180.7185629,1179.580838,515.1616766,,58,m,6/5/2015,253.7075099,694.2094862,624.0474308
,,,,,,,,,,,,,,,,,59,p,6/6/2015,.,426.3673469,1057.15102,,59,s,6/5/2015,.,547.3577236,329.8292683,,59,m,6/6/2015,265.3140496,617.5619835,603.3966942
,,,,,,,,,,,,,,,,,60,p,6/7/2015,.,379.81893,920.7407407,,60,s,6/6/2015,116.8408644,446.6797642,280.4086444,,60,m,6/7/2015,485.7865613,1584.940711,.
,,,,,,,,,,,,,,,,,61,p,6/8/2015,324.2519685,440.2755906,946.3228346,,61,s,6/7/2015,214.5433526,1797.321773,718.982659,,61,m,6/8/2015,441.45,2816.6875,961.325
,,,,,,,,,,,,,,,,,62,p,6/9/2015,462.1705426,401.5503876,433.4186047,,62,s,6/8/2015,212.890595,1459.596929,665.3205374,,62,m,6/9/2015,303.8282209,1024.887526,469.2269939
,,,,,,,,,,,,,,,,,63,p,6/10/2015,413.8888889,415.031746,726.6428571,,63,s,6/9/2015,241.6943907,1023.384913,578.8549323,,63,m,6/10/2015,226.425,773.9791667,329.175
,,,,,,,,,,,,,,,,,64,p,6/11/2015,303.8845361,424.1484536,764.1154639,,64,s,6/10/2015,254.1301775,1251.99211,437.7514793,,64,m,6/11/2015,314.757764,1144.099379,449.8881988
,,,,,,,,,,,,,,,,,65,p,6/12/2015,336.627451,242.9019608,596.7058824,,65,s,6/11/2015,154.546875,821.5039063,614.296875,,65,m,6/12/2015,288.1558442,1076.536797,813.3766234
,,,,,,,,,,,,,,,,,66,p,6/13/2015,418.6773547,665.9639279,852.6973948,,66,s,6/12/2015,251.1111111,849.6296296,787.9259259,,66,m,6/13/2015,329.025,750.7708333,383.85
,,,,,,,,,,,,,,,,,67,p,6/14/2015,389.1485149,1322.811881,644.150495,,67,s,6/13/2015,285.12,1214.98,762.336,,67,m,6/14/2015,172.1162791,430.251938,227.0465116
,,,,,,,,,,,,,,,,,68,p,6/15/2015,397.2705882,540.745098,719.5058824,,68,s,6/14/2015,137.0462777,667.6861167,739.0020121,,68,m,6/15/2015,414.6585366,1209.715447,641.8780488
,,,,,,,,,,,,,,,,,69,p,6/16/2015,341.8181818,636.630303,841.7212121,,69,s,6/15/2015,246.7079304,1202.669246,1106.390716,,69,m,6/16/2015,358.7244094,1430.11811,588.8503937
,,,,,,,,,,,,,,,,,70,p,6/17/2015,443.8554217,423.0361446,640.4819277,,70,s,6/16/2015,165.7622951,319.0778689,983.6557377,,70,m,6/17/2015,288.8981289,1308.232848,1196.482328
,,,,,,,,,,,,,,,,,71,p,6/18/2015,471.5831663,816.6412826,822.0601202,,71,s,6/17/2015,200.3414634,566.199187,833.8780488,,71,m,6/18/2015,280.7307692,1456.538462,540.3692308
,,,,,,,,,,,,,,,,,72,p,6/19/2015,.,373.6895874,940.4557957,,72,s,6/18/2015,144.4855491,723.7186898,656.2312139,,72,m,6/19/2015,256.4520256,906.5671642,374.3539446
,,,,,,,,,,,,,,,,,73,p,6/20/2015,474.496124,1007.062016,986.5813953,,73,s,6/19/2015,152.5884692,434.612326,643.2286282,,73,m,6/20/2015,292.6004057,1382.981744,457.8498986
,,,,,,,,,,,,,,,,,74,p,6/21/2015,713.0864198,3377.769547,727.654321,,74,s,6/21/2015,172.0641283,737.8156313,558.4208417,,74,m,6/21/2015,254.88,965.56,324.336
,,,,,,,,,,,,,,,,,75,p,6/21/2015,318.2945736,827.4806202,529.9069767,,75,s,6/21/2015,193.3818182,555.6969697,504.969697,,75,m,6/21/2015,241.7445972,886.5225933,667.2612967
,,,,,,,,,,,,,,,,,76,p,6/22/2015,320.2440945,439.6220472,973.2519685,,76,s,6/22/2015,174.0483871,1101.431452,662.1774194,,76,m,6/22/2015,289.697446,1558.722986,633.5717092
,,,,,,,,,,,,,,,,,77,p,6/23/2015,354.8818898,507.8110236,1843.370079,,77,s,6/23/2015,144.8981289,556.008316,440.6320166,,77,m,6/23/2015,287.4193548,1604.455645,652.233871
,,,,,,,,,,,,,,,,,78,p,6/24/2015,344.526749,892.6584362,1933.530864,,78,s,6/24/2015,.,617.5208333,632.625,,78,m,6/24/2015,233.7380457,892.8066528,468.2494802
,,,,,,,,,,,,,,,,,79,p,6/25/2015,330.9836066,683.5,943.4754098,,79,s,6/25/2015,.,837.7058824,365.5764706,,79,m,6/25/2015,197.4,643.125,550.35
,,,,,,,,,,,,,,,,,80,p,6/26/2015,437.195122,1566.195122,2103.731707,,80,s,6/25/2015,163.1578947,816.1598441,240.5380117,,80,m,6/26/2015,352.8699029,981.4757282,534.8271845
,,,,,,,,,,,,,,,,,81,p,6/27/2015,310.6299213,396.4330709,1021.795276,,81,s,6/26/2015,.,746.0122699,442.6257669,,81,m,6/27/2015,253.5378641,491.0291262,537.6699029
,,,,,,,,,,,,,,,,,82,p,6/28/2015,454.459725,1356.605108,1505.163065,,82,s,6/27/2015,.,573.9183673,141.3795918,,82,m,6/28/2015,223.2982456,944.3664717,565.8479532
,,,,,,,,,,,,,,,,,83,p,6/29/2015,497.28,2492.728,1371.144,,83,s,6/28/2015,254.3510204,963.4897959,598.8,,83,m,6/29/2015,361.5,1248.041667,1585.625
,,,,,,,,,,,,,,,,,,,,,,,,84,s,6/29/2015,176.6627219,962.504931,410.0828402,,84,m,6/30/2015,326.2729124,1617.00611,647.9266802
,,,,,,,,,,,,,,,,,,,,,,,,85,s,6/30/2015,105.4785992,384.4747082,240.4435798,,85,m,7/1/2015,232.9156627,1069.036145,499.3253012
,,,,,,,,,,,,,,,,,,,,,,,,86,s,7/1/2015,110.2282398,882.4758221,310.2823985,,86,m,7/2/2015,414.1082164,788.0160321,503.7354709
,,,,,,,,,,,,,,,,,,,,,,,,87,s,7/2/2015,116.9307692,352.1153846,285.2307692,,87,m,7/3/2015,198.8704062,721.4893617,301.9729207
,,,,,,,,,,,,,,,,,,,,,,,,88,s,7/4/2015,134.0363636,424.4848485,286.1090909,,88,m,7/4/2015,235.4457831,970.9437751,542.8674699
,,,,,,,,,,,,,,,,,,,,,,,,89,s,7/5/2015,116.3346304,482.8988327,258.6536965,,89,m,7/5/2015,162.2535211,386.6197183,280.1287726
,,,,,,,,,,,,,,,,,,,,,,,,90,s,7/6/2015,105.696,413.68,273.6,,90,m,7/6/2015,346.8097166,1270.647773,362.0890688
,,,,,,,,,,,,,,,,,,,,,,,,91,s,7/7/2015,222.7588933,690.5335968,421.1620553,,91,m,7/7/2015,141.1560694,715.6069364,436.6242775
,,,,,,,,,,,,,,,,,,,,,,,,92,s,7/8/2015,111.3609959,593.6307054,413.9253112,,92,m,7/8/2015,138.3083004,457.2529644,465.5573123
,,,,,,,,,,,,,,,,,,,,,,,,93,s,7/9/2015,335.55,1255.125,374.525,,93,m,7/9/2015,279.2470588,584.627451,398.3764706
,,,,,,,,,,,,,,,,,,,,,,,,94,s,7/10/2015,160.6259542,910.3244275,492.5954198,,94,m,7/10/2015,363.5650485,1346.485437,921.4834951
,,,,,,,,,,,,,,,,,,,,,,,,95,s,7/11/2015,310.9727626,2502.529183,1059.945525,,95,m,7/11/2015,295.6985743,943.4419552,568.9368635
,,,,,,,,,,,,,,,,,,,,,,,,96,s,7/12/2015,198.8704062,1121.141199,523.8452611,,96,m,7/12/2015,306,1929.311024,783.7795276
,,,,,,,,,,,,,,,,,,,,,,,,97,s,7/13/2015,206.5846154,1100.75,459.9230769,,97,m,7/13/2015,263.2677165,1307.69685,598.9370079
,,,,,,,,,,,,,,,,,,,,,,,,98,s,7/13/2015,141.0871369,776.6804979,397.0207469,,98,m,7/14/2015,316.368,909.6,737.112
